{"type": "FeatureCollection", "features": [ {"type": "Feature", "properties": {"norad_id": 34058, "name": "COSMOS 2251 DEB", "group": "cosmos-2251-debris", "lat": 30.895440308290123, "lon": -20.045341035887766, "alt_km": 777.9915145034656, "timestamp": "2025-12-17T19:34:08.431350+00:00", "meta": {"OBJECT_NAME": "COSMOS 2251 DEB", "OBJECT_ID": "1993-036JV", "EPOCH": "2025-12-16T22:11:51.454176", "MEAN_MOTION": 13.5608274, "ECCENTRICITY": 0.03777727, "INCLINATION": 73.9314, "RA_OF_ASC_NODE": 171.3287, "ARG_OF_PERICENTER": 165.7713, "MEAN_ANOMALY": 317.4426, "EPHEMERIS_TYPE": 0, "CLASSIFICATION_TYPE": "U", "NORAD_CAT_ID": 34058, "ELEMENT_SET_NO": 999, "REV_AT_EPOCH": 83199, "BSTAR": 0.0006582922, "MEAN_MOTION_DOT": 7.1e-06, "MEAN_MOTION_DDOT": 0}, "tle": {"line1": "1 34058U 93036JV  25350.92490109  .00000710  00000+0  65829-3 0  9990", "line2": "2 34058  73.9314 171.3287 0377772 165.7713 317.4426 13.56082740831994"}}, "geometry": {"type": "Point", "coordinates": [-20.045341035887766, 30.895440308290123]}}, {"type": "Feature", "properties": {"norad_id": 34059, "name": "COSMOS 2251 DEB", "group": "cosmos-2251-debris", "lat": -20.935647891018682, "lon": 170.41448327849287, "alt_km": 719.6474587688472, "timestamp": "2025-12-17T19:34:08.431360+00:00", "meta": {"OBJECT_NAME": "COSMOS 2251 DEB", "OBJECT_ID": "1993-036JW", "EPOCH": "2025-12-17T07:15:48.661920", "MEAN_MOTION": 14.52973915, "ECCENTRICITY": 0.00185424, "INCLINATION": 74.0366, "RA_OF_ASC_NODE": 177.6685, "ARG_OF_PERICENTER": 254.5429, "MEAN_ANOMALY": 282.6985, "EPHEMERIS_TYPE": 0, "CLASSIFICATION_TYPE": "U", "NORAD_CAT_ID": 34059, "ELEMENT_SET_NO": 999, "REV_AT_EPOCH": 88525, "BSTAR": 0.0005739455, "MEAN_MOTION_DOT": 2.345e-05, "MEAN_MOTION_DDOT": 0}, "tle": {"line1": "1 34059U 93036JW  25351.30264655  .00002345  00000+0  57395-3 0  9994", "line2": "2 34059  74.0366 177.6685 0018542 254.5429 282.6985 14.52973915885254"}}, "geometry": {"type": "Point", "coordinates": [170.41448327849287, -20.935647891018682]}}, {"type": "Feature", "properties": {"norad_id": 34061, "name": "COSMOS 2251 DEB", "group": "cosmos-2251-debris", "lat": 73.20550522294604, "lon": 2.521923780331815, "alt_km": 758.3936199363343, "timestamp": "2025-12-17T19:34:08.431370+00:00", "meta": {"OBJECT_NAME": "COSMOS 2251 DEB", "OBJECT_ID": "1993-036JY", "EPOCH": "2025-12-17T04:52:36.473952", "MEAN_MOTION": 14.40367208, "ECCENTRICITY": 0.00206736, "INCLINATION": 74.0391, "RA_OF_ASC_NODE": 255.1389, "ARG_OF_PERICENTER": 331.3493, "MEAN_ANOMALY": 190.6658, "EPHEMERIS_TYPE": 0, "CLASSIFICATION_TYPE": "U", "NORAD_CAT_ID": 34061, "ELEMENT_SET_NO": 999, "REV_AT_EPOCH": 88244, "BSTAR": 0.00027493225, "MEAN_MOTION_DOT": 8.48e-06, "MEAN_MOTION_DDOT": 0}, "tle": {"line1": "1 34061U 93036JY  25351.20319993  .00000848  00000+0  27493-3 0  9994", "line2": "2 34061  74.0391 255.1389 0020673 331.3493 190.6658 14.40367208882443"}}, "geometry": {"type": "Point", "coordinates": [2.521923780331815, 73.20550522294604]}}, {"type": "Feature", "properties": {"norad_id": 34062, "name": "COSMOS 2251 DEB", "group": "cosmos-2251-debris", "lat": -15.911915553339902, "lon": -47.264217649213705, "alt_km": 586.1633933837002, "timestamp": "2025-12-17T19:34:08.431380+00:00", "meta": {"OBJECT_NAME": "COSMOS 2251 DEB", "OBJECT_ID": "1993-036JZ", "EPOCH": "2025-12-17T03:13:44.402880", "MEAN_MOTION": 14.78842845, "ECCENTRICITY": 0.00740886, "INCLINATION": 74.0272, "RA_OF_ASC_NODE": 129.391, "ARG_OF_PERICENTER": 207.5874, "MEAN_ANOMALY": 325.848, "EPHEMERIS_TYPE": 0, "CLASSIFICATION_TYPE": "U", "NORAD_CAT_ID": 34062, "ELEMENT_SET_NO": 999, "REV_AT_EPOCH": 88660, "BSTAR": 0.0022379955, "MEAN_MOTION_DOT": 0.00017262, "MEAN_MOTION_DDOT": 0}, "tle": {"line1": "1 34062U 93036JZ  25351.13454170  .00017262  00000+0  22380-2 0  9991", "line2": "2 34062  74.0272 129.3910 0074088 207.5874 325.8480 14.78842845886603"}}, "geometry": {"type": "Point", "coordinates": [-47.264217649213705, -15.911915553339902]}}, {"type": "Feature", "properties": {"norad_id": 34064, "name": "COSMOS 2251 DEB", "group": "cosmos-2251-debris", "lat": 68.1591090286704, "lon": 35.863171818066526, "alt_km": 755.492221616294, "timestamp": "2025-12-17T19:34:08.431390+00:00", "meta": {"OBJECT_NAME": "COSMOS 2251 DEB", "OBJECT_ID": "1993-036KB", "EPOCH": "2025-12-17T00:51:04.048992", "MEAN_MOTION": 14.42353797, "ECCENTRICITY": 0.00222513, "INCLINATION": 74.0331, "RA_OF_ASC_NODE": 262.8984, "ARG_OF_PERICENTER": 328.8327, "MEAN_ANOMALY": 48.0228, "EPHEMERIS_TYPE": 0, "CLASSIFICATION_TYPE": "U", "NORAD_CAT_ID": 34064, "ELEMENT_SET_NO": 999, "REV_AT_EPOCH": 88204, "BSTAR": 0.00040362988, "MEAN_MOTION_DOT": 1.311e-05, "MEAN_MOTION_DDOT": 0}, "tle": {"line1": "1 34064U 93036KB  25351.03546353  .00001311  00000+0  40363-3 0  9997", "line2": "2 34064  74.0331 262.8984 0022251 328.8327  48.0228 14.42353797882042"}}, "geometry": {"type": "Point", "coordinates": [35.863171818066526, 68.1591090286704]}}, {"type": "Feature", "properties": {"norad_id": 34065, "name": "COSMOS 2251 DEB", "group": "cosmos-2251-debris", "lat": 38.19332380899862, "lon": -98.21232529859859, "alt_km": 754.8735481104577, "timestamp": "2025-12-17T19:34:08.431400+00:00", "meta": {"OBJECT_NAME": "COSMOS 2251 DEB", "OBJECT_ID": "1993-036KC", "EPOCH": "2025-12-17T03:13:07.453056", "MEAN_MOTION": 14.38067512, "ECCENTRICITY": 0.00165587, "INCLINATION": 74.0355, "RA_OF_ASC_NODE": 250.0268, "ARG_OF_PERICENTER": 346.6989, "MEAN_ANOMALY": 127.7572, "EPHEMERIS_TYPE": 0, "CLASSIFICATION_TYPE": "U", "NORAD_CAT_ID": 34065, "ELEMENT_SET_NO": 999, "REV_AT_EPOCH": 88268, "BSTAR": 0.00014344203, "MEAN_MOTION_DOT": 4.09e-06, "MEAN_MOTION_DDOT": 0}, "tle": {"line1": "1 34065U 93036KC  25351.13411404  .00000409  00000+0  14344-3 0  9994", "line2": "2 34065  74.0355 250.0268 0016558 346.6989 127.7572 14.38067512882687"}}, "geometry": {"type": "Point", "coordinates": [-98.21232529859859, 38.19332380899862]}}, {"type": "Feature", "properties": {"norad_id": 34070, "name": "COSMOS 2251 DEB", "group": "cosmos-2251-debris", "lat": -72.54727445754119, "lon": 40.41820118881958, "alt_km": 637.5982476225417, "timestamp": "2025-12-17T19:34:08.431410+00:00", "meta": {"OBJECT_NAME": "COSMOS 2251 DEB", "OBJECT_ID": "1993-036KH", "EPOCH": "2025-12-17T07:03:42.502752", "MEAN_MOTION": 14.77184597, "ECCENTRICITY": 0.0018381, "INCLINATION": 74.0005, "RA_OF_ASC_NODE": 107.3155, "ARG_OF_PERICENTER": 223.8226, "MEAN_ANOMALY": 162.8875, "EPHEMERIS_TYPE": 0, "CLASSIFICATION_TYPE": "U", "NORAD_CAT_ID": 34070, "ELEMENT_SET_NO": 999, "REV_AT_EPOCH": 88678, "BSTAR": 0.0019801532, "MEAN_MOTION_DOT": 0.00014054, "MEAN_MOTION_DDOT": 0}, "tle": {"line1": "1 34070U 93036KH  25351.29424193  .00014054  00000+0  19802-2 0  9990", "line2": "2 34070  74.0005 107.3155 0018381 223.8226 162.8875 14.77184597886787"}}, "geometry": {"type": "Point", "coordinates": [40.41820118881958, -72.54727445754119]}}, {"type": "Feature", "properties": {"norad_id": 34114, "name": "COSMOS 2251 DEB", "group": "cosmos-2251-debris", "lat": 66.39978981955775, "lon": 173.35715205276955, "alt_km": 692.1234907488006, "timestamp": "2025-12-17T19:34:08.431420+00:00", "meta": {"OBJECT_NAME": "COSMOS 2251 DEB", "OBJECT_ID": "1993-036KK", "EPOCH": "2025-12-17T04:30:00.070848", "MEAN_MOTION": 14.56439123, "ECCENTRICITY": 0.00476175, "INCLINATION": 74.0595, "RA_OF_ASC_NODE": 35.4043, "ARG_OF_PERICENTER": 28.4496, "MEAN_ANOMALY": 27.8907, "EPHEMERIS_TYPE": 0, "CLASSIFICATION_TYPE": "U", "NORAD_CAT_ID": 34114, "ELEMENT_SET_NO": 999, "REV_AT_EPOCH": 87866, "BSTAR": 0.0011778982, "MEAN_MOTION_DOT": 5.288e-05, "MEAN_MOTION_DDOT": 0}, "tle": {"line1": "1 34114U 93036KK  25351.18750082  .00005288  00000+0  11779-2 0  9990", "line2": "2 34114  74.0595  35.4043 0047617  28.4496  27.8907 14.56439123878668"}}, "geometry": {"type": "Point", "coordinates": [173.35715205276955, 66.39978981955775]}}, {"type": "Feature", "properties": {"norad_id": 34115, "name": "COSMOS 2251 DEB", "group": "cosmos-2251-debris", "lat": -70.32549540189011, "lon": 178.59714704916658, "alt_km": 651.180357589059, "timestamp": "2025-12-17T19:34:08.431430+00:00", "meta": {"OBJECT_NAME": "COSMOS 2251 DEB", "OBJECT_ID": "1993-036KL", "EPOCH": "2025-12-17T02:04:20.238240", "MEAN_MOTION": 14.79549302, "ECCENTRICITY": 0.00287133, "INCLINATION": 74.0066, "RA_OF_ASC_NODE": 233.3713, "ARG_OF_PERICENTER": 55.6113, "MEAN_ANOMALY": 304.7772, "EPHEMERIS_TYPE": 0, "CLASSIFICATION_TYPE": "U", "NORAD_CAT_ID": 34115, "ELEMENT_SET_NO": 999, "REV_AT_EPOCH": 89476, "BSTAR": 0.00074136898, "MEAN_MOTION_DOT": 5.558e-05, "MEAN_MOTION_DDOT": 0}, "tle": {"line1": "1 34115U 93036KL  25351.08634535  .00005558  00000+0  74137-3 0  9992", "line2": "2 34115  74.0066 233.3713 0028713  55.6113 304.7772 14.79549302894761"}}, "geometry": {"type": "Point", "coordinates": [178.59714704916658, -70.32549540189011]}}, {"type": "Feature", "properties": {"norad_id": 34116, "name": "COSMOS 2251 DEB", "group": "cosmos-2251-debris", "lat": 55.74895252074035, "lon": -31.6515363656871, "alt_km": 715.4324924099019, "timestamp": "2025-12-17T19:34:08.431440+00:00", "meta": {"OBJECT_NAME": "COSMOS 2251 DEB", "OBJECT_ID": "1993-036KM", "EPOCH": "2025-12-17T06:37:14.640960", "MEAN_MOTION": 14.53002281, "ECCENTRICITY": 0.00119222, "INCLINATION": 74.0394, "RA_OF_ASC_NODE": 174.2199, "ARG_OF_PERICENTER": 250.2303, "MEAN_ANOMALY": 289.6022, "EPHEMERIS_TYPE": 0, "CLASSIFICATION_TYPE": "U", "NORAD_CAT_ID": 34116, "ELEMENT_SET_NO": 999, "REV_AT_EPOCH": 88552, "BSTAR": 0.00058672967, "MEAN_MOTION_DOT": 2.396e-05, "MEAN_MOTION_DDOT": 0}, "tle": {"line1": "1 34116U 93036KM  25351.27586390  .00002396  00000+0  58673-3 0  9993", "line2": "2 34116  74.0394 174.2199 0011922 250.2303 289.6022 14.53002281885520"}}, "geometry": {"type": "Point", "coordinates": [-31.6515363656871, 55.74895252074035]}}]}